{
  "links" : {
    "next" : "https://api.nasa.gov/neo/rest/v1/feed?start_date=2015-02-23&end_date=2015-02-23&detailed=true&api_key=t0TVs3DtDT2H8Oy2Zy8m2eVrNsAVKAexjcZXUckd",
    "prev" : "https://api.nasa.gov/neo/rest/v1/feed?start_date=2015-02-21&end_date=2015-02-21&detailed=true&api_key=t0TVs3DtDT2H8Oy2Zy8m2eVrNsAVKAexjcZXUckd",
    "self" : "https://api.nasa.gov/neo/rest/v1/feed?start_date=2015-02-22&end_date=2015-02-22&detailed=true&api_key=t0TVs3DtDT2H8Oy2Zy8m2eVrNsAVKAexjcZXUckd"
  },
  "element_count" : 6,
  "near_earth_objects" : {
    "2015-02-22" : [ {
      "links" : {
        "self" : "https://api.nasa.gov/neo/rest/v1/neo/3404492?api_key=t0TVs3DtDT2H8Oy2Zy8m2eVrNsAVKAexjcZXUckd"
      },
      "neo_reference_id" : "3404492",
      "name" : "(2008 DW22)",
      "nasa_jpl_url" : "http://ssd.jpl.nasa.gov/sbdb.cgi?sstr=3404492",
      "absolute_magnitude_h" : 25.6,
      "estimated_diameter" : {
        "kilometers" : {
          "estimated_diameter_min" : 0.0201629919,
          "estimated_diameter_max" : 0.0450858206
        },
        "meters" : {
          "estimated_diameter_min" : 20.1629919443,
          "estimated_diameter_max" : 45.0858206172
        },
        "miles" : {
          "estimated_diameter_min" : 0.0125286985,
          "estimated_diameter_max" : 0.0280150214
        },
        "feet" : {
          "estimated_diameter_min" : 66.1515504905,
          "estimated_diameter_max" : 147.9193637137
        }
      },
      "is_potentially_hazardous_asteroid" : false,
      "close_approach_data" : [ {
        "close_approach_date" : "2015-02-22",
        "epoch_date_close_approach" : 1424592000000,
        "relative_velocity" : {
          "kilometers_per_second" : "13.0504851963",
          "kilometers_per_hour" : "46981.7467068362",
          "miles_per_hour" : "29192.6303357006"
        },
        "miss_distance" : {
          "astronomical" : "0.3728765247",
          "lunar" : "145.0489654541",
          "kilometers" : "55781536",
          "miles" : "34661040"
        },
        "orbiting_body" : "Earth"
      } ],
      "orbital_data" : {
        "orbit_id" : "12",
        "orbit_determination_date" : "2017-04-06 09:04:13",
        "orbit_uncertainty" : "6",
        "minimum_orbit_intersection" : ".0876932",
        "jupiter_tisserand_invariant" : "4.046",
        "epoch_osculation" : "2458000.5",
        "eccentricity" : ".3818001408334101",
        "semi_major_axis" : "1.749768035984276",
        "inclination" : ".8356360656174266",
        "ascending_node_longitude" : "105.8201179623051",
        "orbital_period" : "845.4134346400167",
        "perihelion_distance" : "1.08170635341968",
        "perihelion_argument" : "75.06535921825284",
        "aphelion_distance" : "2.417829718548873",
        "perihelion_time" : "2457928.896208395058",
        "mean_anomaly" : "30.49083906355879",
        "mean_motion" : ".4258271577542302",
        "equinox" : "J2000"
      }
    }, {
      "links" : {
        "self" : "https://api.nasa.gov/neo/rest/v1/neo/2422638?api_key=t0TVs3DtDT2H8Oy2Zy8m2eVrNsAVKAexjcZXUckd"
      },
      "neo_reference_id" : "2422638",
      "name" : "422638 (1994 CB)",
      "nasa_jpl_url" : "http://ssd.jpl.nasa.gov/sbdb.cgi?sstr=2422638",
      "absolute_magnitude_h" : 21.2,
      "estimated_diameter" : {
        "kilometers" : {
          "estimated_diameter_min" : 0.1529519353,
          "estimated_diameter_max" : 0.3420109247
        },
        "meters" : {
          "estimated_diameter_min" : 152.9519353442,
          "estimated_diameter_max" : 342.0109247198
        },
        "miles" : {
          "estimated_diameter_min" : 0.095039897,
          "estimated_diameter_max" : 0.2125156703
        },
        "feet" : {
          "estimated_diameter_min" : 501.8108275547,
          "estimated_diameter_max" : 1122.0831222578
        }
      },
      "is_potentially_hazardous_asteroid" : false,
      "close_approach_data" : [ {
        "close_approach_date" : "2015-02-22",
        "epoch_date_close_approach" : 1424592000000,
        "relative_velocity" : {
          "kilometers_per_second" : "13.8693076684",
          "kilometers_per_hour" : "49929.5076061662",
          "miles_per_hour" : "31024.2543233981"
        },
        "miss_distance" : {
          "astronomical" : "0.3081874558",
          "lunar" : "119.8849182129",
          "kilometers" : "46104188",
          "miles" : "28647814"
        },
        "orbiting_body" : "Earth"
      } ],
      "orbital_data" : {
        "orbit_id" : "25",
        "orbit_determination_date" : "2017-04-06 09:21:07",
        "orbit_uncertainty" : "0",
        "minimum_orbit_intersection" : ".0556687",
        "jupiter_tisserand_invariant" : "5.410",
        "epoch_osculation" : "2458000.5",
        "eccentricity" : ".1451309405172579",
        "semi_major_axis" : "1.149414942978972",
        "inclination" : "18.25518724690086",
        "ascending_node_longitude" : "310.6557244508031",
        "orbital_period" : "450.1048423228413",
        "perihelion_distance" : ".9825992712598438",
        "perihelion_argument" : "288.519815048702",
        "aphelion_distance" : "1.316230614698101",
        "perihelion_time" : "2458047.098534261181",
        "mean_anomaly" : "322.7298558987891",
        "mean_motion" : ".7998136570630074",
        "equinox" : "J2000"
      }
    }, {
      "links" : {
        "self" : "https://api.nasa.gov/neo/rest/v1/neo/3468430?api_key=t0TVs3DtDT2H8Oy2Zy8m2eVrNsAVKAexjcZXUckd"
      },
      "neo_reference_id" : "3468430",
      "name" : "(2009 SZ99)",
      "nasa_jpl_url" : "http://ssd.jpl.nasa.gov/sbdb.cgi?sstr=3468430",
      "absolute_magnitude_h" : 19.5,
      "estimated_diameter" : {
        "kilometers" : {
          "estimated_diameter_min" : 0.3346223745,
          "estimated_diameter_max" : 0.7482383761
        },
        "meters" : {
          "estimated_diameter_min" : 334.6223744549,
          "estimated_diameter_max" : 748.2383760735
        },
        "miles" : {
          "estimated_diameter_min" : 0.2079246394,
          "estimated_diameter_max" : 0.464933628
        },
        "feet" : {
          "estimated_diameter_min" : 1097.8424710066,
          "estimated_diameter_max" : 2454.8503937571
        }
      },
      "is_potentially_hazardous_asteroid" : false,
      "close_approach_data" : [ {
        "close_approach_date" : "2015-02-22",
        "epoch_date_close_approach" : 1424592000000,
        "relative_velocity" : {
          "kilometers_per_second" : "16.2562688073",
          "kilometers_per_hour" : "58522.5677063923",
          "miles_per_hour" : "36363.6476951192"
        },
        "miss_distance" : {
          "astronomical" : "0.3369697049",
          "lunar" : "131.0812072754",
          "kilometers" : "50409952",
          "miles" : "31323292"
        },
        "orbiting_body" : "Earth"
      } ],
      "orbital_data" : {
        "orbit_id" : "13",
        "orbit_determination_date" : "2017-04-06 08:59:52",
        "orbit_uncertainty" : "2",
        "minimum_orbit_intersection" : ".0575213",
        "jupiter_tisserand_invariant" : "7.106",
        "epoch_osculation" : "2458000.5",
        "eccentricity" : ".2144032427128643",
        "semi_major_axis" : ".8147756998549571",
        "inclination" : "21.32627966005866",
        "ascending_node_longitude" : "338.0705613910765",
        "orbital_period" : "268.6306289065616",
        "perihelion_distance" : ".6400851477224109",
        "perihelion_argument" : "147.4649668673312",
        "aphelion_distance" : ".9894662519875034",
        "perihelion_time" : "2457866.454289706752",
        "mean_anomaly" : "179.6386953416045",
        "mean_motion" : "1.340130131345594",
        "equinox" : "J2000"
      }
    } ]
  }
}